[{"OBJECT_NAME":"GENMAT-1","OBJECT_ID":"2023-174W","EPOCH":"2026-03-09T18:03:23.351040","MEAN_MOTION":15.32594666,"ECCENTRICITY":0.00074416,"INCLINATION":97.3728,"RA_OF_ASC_NODE":146.8236,"ARG_OF_PERICENTER":169.2515,"MEAN_ANOMALY":190.8888,"EPHEMERIS_TYPE":0,"CLASSIFICATION_TYPE":"U","NORAD_CAT_ID":58276,"ELEMENT_SET_NO":999,"REV_AT_EPOCH":12973,"BSTAR":0.00042157222,"MEAN_MOTION_DOT":0.0001321,"MEAN_MOTION_DDOT":0},{"OBJECT_NAME":"STARLINK-34417","OBJECT_ID":"2025-137Z","EPOCH":"2026-03-09T23:16:17.822208","MEAN_MOTION":15.30199504,"ECCENTRICITY":0.00014326,"INCLINATION":53.1596,"RA_OF_ASC_NODE":321.2254,"ARG_OF_PERICENTER":69.9247,"MEAN_ANOMALY":290.1908,"EPHEMERIS_TYPE":0,"CLASSIFICATION_TYPE":"U","NORAD_CAT_ID":64617,"ELEMENT_SET_NO":999,"REV_AT_EPOCH":4105,"BSTAR":0.0017036147,"MEAN_MOTION_DOT":0.00050439,"MEAN_MOTION_DDOT":0}]
